OBJECT B                
1 51825U 22019B   25247.24725226  .00032324  00000+0  70844-3 0  9994
2 51825  97.3798 324.9225 0010475  98.7768 261.4667 15.43973020195253
